NORAD_CAT_ID,OBJECT_NAME,OBJECT_TYPE,EPOCH,MEAN_MOTION,ECCENTRICITY,INCLINATION,RA_OF_ASC_NODE,ARG_OF_PERICENTER,MEAN_ANOMALY,BSTAR,MEAN_MOTION_DOT,MEAN_MOTION_DDOT,TLE_LINE0,TLE_LINE1,TLE_LINE2,SEMIMAJOR_AXIS,PERIOD,APOGEE,PERIGEE,DECAYED
53291.0,STARLINK-4166,PAYLOAD,2023-08-22 20:23:09,15.08842112,9.23e-05,53.2175,33.1253,80.9185,279.1912,1.5829e-05,-3.6e-07,0.0,0 STARLINK-4166,1 53291U 22086BB  23234.84941441 -.00000036  00000-0  15829-4 0  9996,2 53291  53.2175  33.1253 0000923  80.9185 279.1912 15.08842112 60725,6917.874,95.437,540.377,539.1,0.0
53291.0,STARLINK-4166,PAYLOAD,2023-08-23 10:41:38,15.08827283,9.94e-05,53.2179,30.4479,87.2396,272.871,0.00013787,1.906e-05,0.0,0 STARLINK-4166,1 53291U 22086BB  23235.44558148  .00001906  00000-0  13787-3 0  9997,2 53291  53.2179  30.4479 0000994  87.2396 272.8710 15.08827283 60819,6917.919,95.438,540.472,539.097,0.0
53291.0,STARLINK-4166,PAYLOAD,2023-08-24 18:29:20,15.08843177,0.0001337,53.2201,24.4993,75.4167,284.6973,7.1723e-05,8.54e-06,0.0,0 STARLINK-4166,1 53291U 22086BB  23236.77037543  .00000854  00000-0  71723-4 0  9991,2 53291  53.2201  24.4993 0001337  75.4167 284.6973 15.08843177 61011,6917.871,95.437,540.661,538.811,0.0
53291.0,STARLINK-4166,PAYLOAD,2023-08-25 10:23:12,15.08839666,0.0001482,53.2181,21.5238,103.8447,256.271,1.5584e-05,-4e-07,0.0,0 STARLINK-4166,1 53291U 22086BB  23237.43277952 -.00000040  00000-0  15584-4 0  9996,2 53291  53.2181  21.5238 0001482 103.8447 256.2710 15.08839666 61119,6917.881,95.438,540.772,538.721,0.0
53291.0,STARLINK-4166,PAYLOAD,2023-08-25 13:33:58,15.08838166,0.0001143,53.2189,20.9313,93.8742,266.2381,1.7144e-05,-1.5e-07,0.0,0 STARLINK-4166,1 53291U 22086BB  23237.56526050 -.00000015  00000-0  17144-4 0  9992,2 53291  53.2189  20.9313 0001143  93.8742 266.2381 15.08838166 61292,6917.886,95.438,540.542,538.96,0.0
53291.0,STARLINK-4166,PAYLOAD,2023-08-25 16:44:44,15.08837823,0.0001197,53.2192,20.3358,97.0142,263.0986,7.0364e-06,-1.76e-06,0.0,0 STARLINK-4166,1 53291U 22086BB  23237.69774145 -.00000176  00000-0  70364-5 0  9998,2 53291  53.2192  20.3358 0001197  97.0142 263.0986 15.08837823 61316,6917.887,95.438,540.58,538.924,0.0
53291.0,STARLINK-4166,PAYLOAD,2023-08-26 10:13:59,15.08856824,0.0001093,53.2185,17.0664,97.0182,263.0934,-0.00025098,-4.282e-05,0.0,0 STARLINK-4166,1 53291U 22086BB  23238.42638144 -.00004282  00000-0 -25098-3 0  9993,2 53291  53.2185  17.0664 0001093  97.0182 263.0934 15.08856824 61427,6917.829,95.436,540.45,538.938,0.0
53291.0,STARLINK-4166,PAYLOAD,2023-08-26 16:35:31,15.08853016,0.0001298,53.219,15.8761,95.1894,264.9246,-7.4011e-05,-1.466e-05,0.0,0 STARLINK-4166,1 53291U 22086BB  23238.69133621 -.00001466  00000-0 -74011-4 0  9993,2 53291  53.2190  15.8761 0001298  95.1894 264.9246 15.08853016 61306,6917.841,95.437,540.604,538.808,0.0
53291.0,STARLINK-4166,PAYLOAD,2023-08-26 18:10:54,15.08856184,0.0001229,53.219,15.5782,93.274,266.8393,-0.00011552,-2.127e-05,0.0,0 STARLINK-4166,1 53291U 22086BB  23238.75757473 -.00002127  00000-0 -11552-3 0  9992,2 53291  53.2190  15.5782 0001229  93.2740 266.8393 15.08856184 61470,6917.831,95.437,540.546,538.846,0.0
53291.0,STARLINK-4166,PAYLOAD,2023-08-27 16:26:19,15.08812675,0.0001353,53.2191,11.4148,93.3829,266.7318,0.00042512,6.479e-05,0.0,0 STARLINK-4166,1 53291U 22086BB  23239.68495010  .00006479  00000-0  42512-3 0  9993,2 53291  53.2191  11.4148 0001353  93.3829 266.7318 15.08812675 61450,6917.964,95.439,540.765,538.893,0.0
53291.0,STARLINK-4166,PAYLOAD,2023-08-28 01:58:38,15.08837068,0.0001064,53.2178,9.6346,83.6612,276.4502,5.6573e-05,6.13e-06,0.0,0 STARLINK-4166,1 53291U 22086BB  23240.08238539  .00000613  00000-0  56573-4 0  9997,2 53291  53.2178   9.6346 0001064  83.6612 276.4502 15.08837068 61518,6917.889,95.438,540.49,539.018,0.0
53291.0,STARLINK-4166,PAYLOAD,2023-08-28 16:17:06,15.08844334,0.0001161,53.218,6.9562,88.3454,271.7671,4.5283e-05,4.33e-06,0.0,0 STARLINK-4166,1 53291U 22086BB  23240.67854218  .00000433  00000-0  45283-4 0  9996,2 53291  53.2180   6.9562 0001161  88.3454 271.7671 15.08844334 61761,6917.867,95.437,540.535,538.929,0.0
53291.0,STARLINK-4166,PAYLOAD,2023-08-29 01:49:24,15.0884963,0.0001338,53.2179,5.1742,70.4057,289.7079,-2.0704e-05,-6.18e-06,0.0,0 STARLINK-4166,1 53291U 22086BB  23241.07598005 -.00000618  00000-0 -20704-4 0  9998,2 53291  53.2179   5.1742 0001338  70.4057 289.7079 15.08849630 61661,6917.851,95.437,540.642,538.79,0.0
53291.0,STARLINK-4166,PAYLOAD,2023-08-29 16:07:52,15.08849609,0.0001119,53.2179,2.4983,81.4332,278.6787,8.175e-05,1.014e-05,0.0,0 STARLINK-4166,1 53291U 22086BB  23241.67213817  .00001014  00000-0  81750-4 0  9996,2 53291  53.2179   2.4983 0001119  81.4332 278.6787 15.08849609 61910,6917.851,95.437,540.49,538.942,0.0
53291.0,STARLINK-4166,PAYLOAD,2023-08-30 15:58:39,15.0885125,0.0001131,53.2182,358.0382,82.3066,277.8055,8.6457e-05,1.089e-05,0.0,0 STARLINK-4166,1 53291U 22086BB  23242.66573552  .00001089  00000-0  86457-4 0  9992,2 53291  53.2182 358.0382 0001131  82.3066 277.8055 15.08851250 61908,6917.846,95.437,540.493,538.929,0.0
53291.0,STARLINK-4166,PAYLOAD,2023-08-31 07:52:31,15.08839446,0.0001228,53.2171,355.0641,85.5752,274.538,1.1717e-05,-1.01e-06,0.0,0 STARLINK-4166,1 53291U 22086BB  23243.32814419 -.00000101  00000-0  11717-4 0  9998,2 53291  53.2171 355.0641 0001228  85.5752 274.5380 15.08839446 62005,6917.882,95.438,540.597,538.898,0.0
53291.0,STARLINK-4166,PAYLOAD,2023-08-31 15:49:27,15.08843384,0.0001187,53.2175,353.5766,84.581,275.5318,-1.4157e-06,-3.1e-06,0.0,0 STARLINK-4166,1 53291U 22086BB  23243.65934199 -.00000310  00000-0 -14157-5 0  9997,2 53291  53.2175 353.5766 0001187  84.5810 275.5318 15.08843384 62219,6917.87,95.437,540.556,538.914,0.0
53291.0,STARLINK-4166,PAYLOAD,2023-09-01 14:04:53,15.08777088,0.0001375,53.2177,349.4192,266.8639,93.2196,0.00085172,0.0001327,0.0,0 STARLINK-4166,1 53291U 22086BB  23244.58672574  .00013270  00000-0  85172-3 0  9996,2 53291  53.2177 349.4192 0001375 266.8639  93.2196 15.08777088 62352,6918.073,95.442,540.889,538.986,0.0
53291.0,STARLINK-4166,PAYLOAD,2023-09-01 17:15:38,15.0879453,0.000167,53.2172,348.8184,101.3625,258.7555,0.00073163,0.00011361,0.0,0 STARLINK-4166,1 53291U 22086BB  23244.71919207  .00011361  00000-0  73163-3 0  9994,2 53291  53.2172 348.8184 0001670 101.3625 258.7555 15.08794530 62210,6918.019,95.44,541.04,538.729,0.0
53291.0,STARLINK-4166,PAYLOAD,2023-09-01 23:37:10,15.08829698,0.0001393,53.2174,347.6288,96.0003,264.1148,0.0002265,3.318e-05,0.0,0 STARLINK-4166,1 53291U 22086BB  23244.98414588  .00003318  00000-0  22650-3 0  9993,2 53291  53.2174 347.6288 0001393  96.0003 264.1148 15.08829698 62253,6917.912,95.438,540.741,538.813,0.0
53291.0,STARLINK-4166,PAYLOAD,2023-09-02 07:34:05,15.08840574,0.0001503,53.219,346.1412,84.9097,275.2067,6.6256e-05,7.67e-06,0.0,0 STARLINK-4166,1 53291U 22086BB  23245.31534309  .00000767  00000-0  66256-4 0  9991,2 53291  53.2190 346.1412 0001503  84.9097 275.2067 15.08840574 62301,6917.879,95.438,540.783,538.704,0.0
53291.0,STARLINK-4166,PAYLOAD,2023-09-02 12:20:14,15.08843645,0.000156,53.2196,345.2491,83.6087,276.5083,8.8317e-05,1.118e-05,0.0,0 STARLINK-4166,1 53291U 22086BB  23245.51406044  .00001118  00000-0  88317-4 0  9990,2 53291  53.2196 345.2491 0001560  83.6087 276.5083 15.08843645 62496,6917.869,95.437,540.813,538.655,0.0
53291.0,STARLINK-4166,PAYLOAD,2023-09-02 15:31:00,15.08846268,0.0001578,53.2199,344.654,81.7515,278.3656,0.0001059,1.398e-05,0.0,0 STARLINK-4166,1 53291U 22086BB  23245.64653813  .00001398  00000-0  10590-3 0  9999,2 53291  53.2199 344.6540 0001578  81.7515 278.3656 15.08846268 62514,6917.861,95.437,540.818,538.635,0.0
53291.0,STARLINK-4166,PAYLOAD,2023-09-03 07:24:52,15.08842965,0.0001565,53.2207,341.6797,77.9973,282.1194,5.6109e-05,6.05e-06,0.0,0 STARLINK-4166,1 53291U 22086BB  23246.30894075  .00000605  00000-0  56109-4 0  9997,2 53291  53.2207 341.6797 0001565  77.9973 282.1194 15.08842965 62617,6917.871,95.437,540.819,538.654,0.0
53291.0,STARLINK-4166,PAYLOAD,2023-09-03 12:11:01,15.08845219,0.0001633,53.2209,340.7876,78.6247,281.4929,7.5821e-05,9.19e-06,0.0,0 STARLINK-4166,1 53291U 22086BB  23246.50765803  .00000919  00000-0  75821-4 0  9995,2 53291  53.2209 340.7876 0001633  78.6247 281.4929 15.08845219 62483,6917.864,95.437,540.859,538.6,0.0
53291.0,STARLINK-4166,PAYLOAD,2023-09-04 15:12:36,15.08830062,0.0001729,53.2202,335.732,78.559,281.5597,-7.3332e-05,-1.455e-05,0.0,0 STARLINK-4166,1 53291U 22086BB  23247.63375753 -.00001455  00000-0 -73332-4 0  9994,2 53291  53.2202 335.7320 0001729  78.5590 281.5597 15.08830062 62651,6917.911,95.438,540.972,538.58,0.0
53291.0,STARLINK-4166,PAYLOAD,2023-09-04 23:09:32,15.08833924,0.0001317,53.2186,334.2465,92.8,267.3143,-3.9624e-05,-9.18e-06,0.0,0 STARLINK-4166,1 53291U 22086BB  23247.96495377 -.00000918  00000-0 -39624-4 0  9994,2 53291  53.2186 334.2465 0001317  92.8000 267.3143 15.08833924 62866,6917.899,95.438,540.675,538.853,0.0
53291.0,STARLINK-4166,PAYLOAD,2023-09-05 13:27:59,15.08846857,0.0001323,53.2175,331.5732,94.208,265.9063,3.17e-05,2.17e-06,0.0,0 STARLINK-4166,1 53291U 22086BB  23248.56110494  .00000217  00000-0  31700-4 0  9992,2 53291  53.2175 331.5732 0001323  94.2080 265.9063 15.08846857 62798,6917.859,95.437,540.64,538.809,0.0
53291.0,STARLINK-4166,PAYLOAD,2023-09-05 23:00:18,15.08836466,0.0001154,53.2175,329.7884,92.0541,268.0584,0.00016377,2.319e-05,0.0,0 STARLINK-4166,1 53291U 22086BB  23248.95854808  .00002319  00000-0  16377-3 0  9996,2 53291  53.2175 329.7884 0001154  92.0541 268.0584 15.08836466 62859,6917.891,95.438,540.555,538.958,0.0
53291.0,STARLINK-4166,PAYLOAD,2023-09-06 05:21:51,15.08835005,0.0001147,53.2178,328.5997,90.3048,269.8076,0.00014999,2.1e-05,0.0,0 STARLINK-4166,1 53291U 22086BB  23249.22351129  .00002100  00000-0  14999-3 0  9991,2 53291  53.2178 328.5997 0001147  90.3048 269.8076 15.08835005 63055,6917.896,95.438,540.554,538.967,0.0
